NORAD_CAT_ID,OBJECT_NAME,OBJECT_TYPE,EPOCH,MEAN_MOTION,ECCENTRICITY,INCLINATION,RA_OF_ASC_NODE,ARG_OF_PERICENTER,MEAN_ANOMALY,BSTAR,MEAN_MOTION_DOT,MEAN_MOTION_DDOT,TLE_LINE0,TLE_LINE1,TLE_LINE2,SEMIMAJOR_AXIS,PERIOD,APOGEE,PERIGEE,DECAYED
52609.0,STARLINK-3997,PAYLOAD,2024-06-25 07:23:52,15.08842034,0.0001351,53.2161,193.0538,83.087,277.0276,2.9671e-05,1.84e-06,0.0,0 STARLINK-3997,1 52609U 22052M   24177.30824716  .00000184  00000-0  29671-4 0  9997,2 52609  53.2161 193.0538 0001351  83.0870 277.0276 15.08842034117271,6917.874,95.437,540.674,538.805,0.0
52609.0,STARLINK-3997,PAYLOAD,2024-06-26 07:14:39,15.08843702,0.0001371,53.2159,188.5936,85.6698,274.4451,1.2617e-05,-8.7e-07,0.0,0 STARLINK-3997,1 52609U 22052M   24178.30184418 -.00000087  00000-0  12617-4 0  9991,2 52609  53.2159 188.5936 0001371  85.6698 274.4451 15.08843702117052,6917.869,95.437,540.683,538.786,0.0
52609.0,STARLINK-3997,PAYLOAD,2024-06-27 03:54:40,15.08838621,0.000129,53.2161,184.7316,86.7293,273.3847,2.9645e-05,1.84e-06,0.0,0 STARLINK-3997,1 52609U 22052M   24179.16296688  .00000184  00000-0  29645-4 0  9995,2 52609  53.2161 184.7316 0001290  86.7293 273.3847 15.08838621117554,6917.885,95.438,540.642,538.857,0.0
52609.0,STARLINK-3997,PAYLOAD,2024-06-27 07:05:26,15.0883892,0.0001346,53.2156,184.1353,88.4156,271.699,3.1041e-05,2.06e-06,0.0,0 STARLINK-3997,1 52609U 22052M   24179.29544640  .00000206  00000-0  31041-4 0  9991,2 52609  53.2156 184.1353 0001346  88.4156 271.6990 15.08838920117206,6917.884,95.438,540.68,538.818,0.0
52609.0,STARLINK-3997,PAYLOAD,2024-06-28 06:56:13,15.08840848,0.0001316,53.2155,179.6714,90.2276,269.8867,4.7269e-05,4.64e-06,0.0,0 STARLINK-3997,1 52609U 22052M   24180.28904523  .00000464  00000-0  47269-4 0  9997,2 52609  53.2155 179.6714 0001316  90.2276 269.8867 15.08840848117727,6917.878,95.438,540.653,538.832,0.0
52609.0,STARLINK-3997,PAYLOAD,2024-06-29 05:11:38,15.08832453,0.0001384,53.2155,175.5118,101.3595,258.7553,9.4923e-06,-1.37e-06,0.0,0 STARLINK-3997,1 52609U 22052M   24181.21641495 -.00000137  00000-0  94923-5 0  9995,2 52609  53.2155 175.5118 0001384 101.3595 258.7553 15.08832453117860,6917.903,95.438,540.726,538.811,0.0
52609.0,STARLINK-3997,PAYLOAD,2024-06-29 09:57:47,15.08833443,0.0001302,53.215,174.6167,90.5869,269.5272,1.2434e-05,-9e-07,0.0,0 STARLINK-3997,1 52609U 22052M   24181.41513495 -.00000090  00000-0  12434-4 0  9999,2 52609  53.2150 174.6167 0001302  90.5869 269.5272 15.08833443117523,6917.9,95.438,540.666,538.865,0.0
52609.0,STARLINK-3997,PAYLOAD,2024-06-29 16:19:20,15.08834155,0.0001308,53.2152,173.4273,90.2186,269.8956,2.1929e-05,6.1e-07,0.0,0 STARLINK-3997,1 52609U 22052M   24181.68009533  .00000061  00000-0  21929-4 0  9997,2 52609  53.2152 173.4273 0001308  90.2186 269.8956 15.08834155117562,6917.898,95.438,540.668,538.858,0.0
52609.0,STARLINK-3997,PAYLOAD,2024-06-30 08:13:11,15.08839651,0.0001334,53.2155,170.4536,89.9943,270.1202,6.2616e-05,7.09e-06,0.0,0 STARLINK-3997,1 52609U 22052M   24182.34249233  .00000709  00000-0  62616-4 0  9991,2 52609  53.2155 170.4536 0001334  89.9943 270.1202 15.08839651118037,6917.881,95.438,540.669,538.824,0.0
52609.0,STARLINK-3997,PAYLOAD,2024-06-30 16:10:07,15.08835551,0.0001332,53.2157,168.9668,89.8048,270.3097,6.1064e-05,6.84e-06,0.0,0 STARLINK-3997,1 52609U 22052M   24182.67369561  .00000684  00000-0  61064-4 0  9992,2 52609  53.2157 168.9668 0001332  89.8048 270.3097 15.08835551117713,6917.894,95.438,540.68,538.838,0.0
52609.0,STARLINK-3997,PAYLOAD,2024-07-01 08:03:58,15.08841131,0.0001373,53.2157,165.9933,91.2433,268.8717,0.00011936,1.612e-05,0.0,0 STARLINK-3997,1 52609U 22052M   24183.33609233  .00001612  00000-0  11936-3 0  9993,2 52609  53.2157 165.9933 0001373  91.2433 268.8717 15.08841131117818,6917.877,95.437,540.692,538.792,0.0
52609.0,STARLINK-3997,PAYLOAD,2024-07-01 16:00:54,15.08835081,0.0001381,53.2156,164.5061,86.1133,274.0017,5.8326e-05,6.4e-06,0.0,0 STARLINK-3997,1 52609U 22052M   24183.66729846  .00000640  00000-0  58326-4 0  9997,2 52609  53.2156 164.5061 0001381  86.1133 274.0017 15.08835081118239,6917.895,95.438,540.716,538.805,0.0
52609.0,STARLINK-3997,PAYLOAD,2024-07-02 06:19:22,15.08840952,0.0001404,53.2155,161.8297,86.7605,273.3548,3.7464e-05,3.08e-06,0.0,0 STARLINK-3997,1 52609U 22052M   24184.26345647  .00000308  00000-0  37464-4 0  9998,2 52609  53.2155 161.8297 0001404  86.7605 273.3548 15.08840952117957,6917.877,95.437,540.714,538.771,0.0
52609.0,STARLINK-3997,PAYLOAD,2024-07-02 15:51:41,15.08843991,0.0001428,53.216,160.0457,87.2621,272.8535,3.266e-05,2.32e-06,0.0,0 STARLINK-3997,1 52609U 22052M   24184.66089400  .00000232  00000-0  32660-4 0  9993,2 52609  53.2160 160.0457 0001428  87.2621 272.8535 15.08843991118386,6917.868,95.437,540.721,538.745,0.0
52609.0,STARLINK-3997,PAYLOAD,2024-07-02 22:13:13,15.08841721,0.0001433,53.2156,158.8576,87.0441,273.0715,5.2874e-05,5.54e-06,0.0,0 STARLINK-3997,1 52609U 22052M   24184.92585506  .00000554  00000-0  52874-4 0  9996,2 52609  53.2156 158.8576 0001433  87.0441 273.0715 15.08841721118058,6917.875,95.437,540.731,538.749,0.0
52609.0,STARLINK-3997,PAYLOAD,2024-07-03 15:42:28,15.08842188,0.0001268,53.2142,155.5862,95.2311,264.8826,-8.2093e-06,-4.19e-06,0.0,0 STARLINK-3997,1 52609U 22052M   24185.65449433 -.00000419  00000-0 -82093-5 0  9994,2 52609  53.2142 155.5862 0001268  95.2311 264.8826 15.08842188118169,6917.874,95.437,540.616,538.862,0.0
52609.0,STARLINK-3997,PAYLOAD,2024-07-04 02:50:10,15.08836146,0.0001386,53.2145,153.5041,88.4299,271.6852,2.4906e-05,1.08e-06,0.0,0 STARLINK-3997,1 52609U 22052M   24186.11817808  .00000108  00000-0  24906-4 0  9992,2 52609  53.2145 153.5041 0001386  88.4299 271.6852 15.08836146118600,6917.892,95.438,540.716,538.798,0.0
52609.0,STARLINK-3997,PAYLOAD,2024-07-04 04:25:33,15.0883727,0.0001289,53.2149,153.2034,96.3144,263.7995,-1.4133e-05,-5.13e-06,0.0,0 STARLINK-3997,1 52609U 22052M   24186.18441790 -.00000513  00000-0 -14133-4 0  9995,2 52609  53.2149 153.2034 0001289  96.3144 263.7995 15.08837270118241,6917.889,95.438,540.645,538.862,0.0
52609.0,STARLINK-3997,PAYLOAD,2024-07-05 04:16:20,15.08846289,0.0001198,53.2149,148.7429,98.599,261.5138,1.6173e-05,-3e-07,0.0,0 STARLINK-3997,1 52609U 22052M   24187.17801080 -.00000030  00000-0  16173-4 0  9996,2 52609  53.2149 148.7429 0001198  98.5990 261.5138 15.08846289118762,6917.861,95.437,540.555,538.897,0.0
52609.0,STARLINK-3997,PAYLOAD,2024-07-05 07:27:06,15.08845481,0.0001258,53.2154,148.1497,99.1586,260.9549,3.5385e-05,2.75e-06,0.0,0 STARLINK-3997,1 52609U 22052M   24187.31049046  .00000275  00000-0  35385-4 0  9994,2 52609  53.2154 148.1497 0001258  99.1586 260.9549 15.08845481118416,6917.864,95.437,540.599,538.858,0.0
52609.0,STARLINK-3997,PAYLOAD,2024-07-05 21:45:35,15.08830624,0.0001308,53.2155,145.4721,100.2117,259.9023,-1.3321e-05,-5e-06,0.0,0 STARLINK-3997,1 52609U 22052M   24187.90666304 -.00000500  00000-0 -13321-4 0  9990,2 52609  53.2155 145.4721 0001308 100.2117 259.9023 15.08830624118505,6917.909,95.438,540.679,538.869,0.0
52609.0,STARLINK-3997,PAYLOAD,2024-07-06 04:07:08,15.0882258,0.0001166,53.2167,144.2868,97.3616,262.7509,0.00013726,1.896e-05,0.0,0 STARLINK-3997,1 52609U 22052M   24188.17162309  .00001896  00000-0  13726-3 0  9991,2 52609  53.2167 144.2868 0001166  97.3616 262.7509 15.08822580118917,6917.934,95.439,540.605,538.992,0.0
52609.0,STARLINK-3997,PAYLOAD,2024-07-06 13:39:26,15.08835543,0.0001224,53.2168,142.5005,88.7223,271.3909,1.9953e-05,3e-07,0.0,0 STARLINK-3997,1 52609U 22052M   24188.56906102  .00000030  00000-0  19953-4 0  9999,2 52609  53.2168 142.5005 0001224  88.7223 271.3909 15.08835543118604,6917.894,95.438,540.606,538.912,0.0
52609.0,STARLINK-3997,PAYLOAD,2024-07-07 05:33:18,15.08839514,0.0001287,53.2172,139.5283,92.6528,267.4612,-6.5199e-06,-3.92e-06,0.0,0 STARLINK-3997,1 52609U 22052M   24189.23146218 -.00000392  00000-0 -65199-5 0  9995,2 52609  53.2172 139.5283 0001287  92.6528 267.4612 15.08839514118704,6917.882,95.438,540.637,538.857,0.0
52609.0,STARLINK-3997,PAYLOAD,2024-07-08 03:48:42,15.08840137,0.0001277,53.2174,135.3651,87.8438,272.27,0.00012313,1.672e-05,0.0,0 STARLINK-3997,1 52609U 22052M   24190.15881997  .00001672  00000-0  12313-3 0  9996,2 52609  53.2174 135.3651 0001277  87.8438 272.2700 15.08840137119216,6917.88,95.438,540.628,538.862,0.0
52609.0,STARLINK-3997,PAYLOAD,2024-07-08 13:21:01,15.08837284,0.0001386,53.2171,133.5806,91.07,269.0451,4.0774e-05,3.61e-06,0.0,0 STARLINK-3997,1 52609U 22052M   24190.55626452  .00000361  00000-0  40774-4 0  9990,2 52609  53.2171 133.5806 0001386  91.0700 269.0451 15.08837284118906,6917.889,95.438,540.713,538.795,0.0
52609.0,STARLINK-3997,PAYLOAD,2024-07-09 05:14:52,15.08846251,0.0001392,53.2175,130.6059,87.3934,272.7217,5.1752e-05,5.36e-06,0.0,0 STARLINK-3997,1 52609U 22052M   24191.21865936  .00000536  00000-0  51752-4 0  9998,2 52609  53.2175 130.6059 0001392  87.3934 272.7217 15.08846251119379,6917.861,95.437,540.689,538.763,0.0
52609.0,STARLINK-3997,PAYLOAD,2024-07-09 13:11:48,15.08831525,0.0001599,53.2178,129.121,84.1881,275.9293,-1.3522e-05,-5.03e-06,0.0,0 STARLINK-3997,1 52609U 22052M   24191.54987149 -.00000503  00000-0 -13522-4 0  9994,2 52609  53.2178 129.1210 0001599  84.1881 275.9293 15.08831525119051,6917.906,95.438,540.877,538.665,0.0
52609.0,STARLINK-3997,PAYLOAD,2024-07-10 13:02:36,15.08837768,0.0001517,53.2184,124.6583,100.5468,259.5695,-3.0121e-05,-7.67e-06,0.0,0 STARLINK-3997,1 52609U 22052M   24192.54347330 -.00000767  00000-0 -30121-4 0  9993,2 52609  53.2184 124.6583 0001517 100.5468 259.5695 15.08837768119201,6917.887,95.438,540.802,538.703,0.0
52609.0,STARLINK-3997,PAYLOAD,2024-07-10 19:24:08,15.08842194,0.0001361,53.2173,123.4693,94.267,265.8477,6.9242e-05,8.14e-06,0.0,0 STARLINK-3997,1 52609U 22052M   24192.80842747  .00000814  00000-0  69242-4 0  9991,2 52609  53.2173 123.4693 0001361  94.2670 265.8477 15.08842194119611,6917.874,95.437,540.68,538.797,0.0
